[{"OBJECT_NAME":"ONEWEB-0296","OBJECT_ID":"2021-075L","EPOCH":"2026-01-06T07:20:53.831040","MEAN_MOTION":13.12445397,"ECCENTRICITY":0.00017233,"INCLINATION":87.8923,"RA_OF_ASC_NODE":22.8068,"ARG_OF_PERICENTER":103.4707,"MEAN_ANOMALY":256.6613,"EPHEMERIS_TYPE":0,"CLASSIFICATION_TYPE":"U","NORAD_CAT_ID":49085,"ELEMENT_SET_NO":999,"REV_AT_EPOCH":21334,"BSTAR":-0.00096144468,"MEAN_MOTION_DOT":-3.33e-6,"MEAN_MOTION_DDOT":0},{"OBJECT_NAME":"ONEWEB-0297","OBJECT_ID":"2021-075M","EPOCH":"2026-01-06T08:04:49.517472","MEAN_MOTION":13.12443468,"ECCENTRICITY":0.000178,"INCLINATION":87.8916,"RA_OF_ASC_NODE":22.8308,"ARG_OF_PERICENTER":94.6912,"MEAN_ANOMALY":265.442,"EPHEMERIS_TYPE":0,"CLASSIFICATION_TYPE":"U","NORAD_CAT_ID":49086,"ELEMENT_SET_NO":999,"REV_AT_EPOCH":21395,"BSTAR":0.0011877778,"MEAN_MOTION_DOT":4.4e-6,"MEAN_MOTION_DDOT":0},{"OBJECT_NAME":"ONEWEB-0298","OBJECT_ID":"2021-075N","EPOCH":"2026-01-06T03:27:49.686912","MEAN_MOTION":13.17649437,"ECCENTRICITY":0.00019211,"INCLINATION":87.9087,"RA_OF_ASC_NODE":38.0832,"ARG_OF_PERICENTER":93.8646,"MEAN_ANOMALY":266.2705,"EPHEMERIS_TYPE":0,"CLASSIFICATION_TYPE":"U","NORAD_CAT_ID":49087,"ELEMENT_SET_NO":999,"REV_AT_EPOCH":21228,"BSTAR":7.0006963e-5,"MEAN_MOTION_DOT":4.0e-7,"MEAN_MOTION_DDOT":0},{"OBJECT_NAME":"ONEWEB-0299","OBJECT_ID":"2021-075P","EPOCH":"2026-01-06T03:30:03.759840","MEAN_MOTION":13.17650183,"ECCENTRICITY":0.00018546,"INCLINATION":87.9096,"RA_OF_ASC_NODE":38.0473,"ARG_OF_PERICENTER":99.4391,"MEAN_ANOMALY":260.695,"EPHEMERIS_TYPE":0,"CLASSIFICATION_TYPE":"U","NORAD_CAT_ID":49088,"ELEMENT_SET_NO":999,"REV_AT_EPOCH":21226,"BSTAR":-3.6325311e-5,"MEAN_MOTION_DOT":-1.0e-8,"MEAN_MOTION_DDOT":0},{"OBJECT_NAME":"ONEWEB-0300","OBJECT_ID":"2021-075Q","EPOCH":"2026-01-06T02:24:30.640896","MEAN_MOTION":13.12444127,"ECCENTRICITY":0.0001975,"INCLINATION":87.8926,"RA_OF_ASC_NODE":22.8403,"ARG_OF_PERICENTER":86.1633,"MEAN_ANOMALY":273.9721,"EPHEMERIS_TYPE":0,"CLASSIFICATION_TYPE":"U","NORAD_CAT_ID":49089,"ELEMENT_SET_NO":999,"REV_AT_EPOCH":21394,"BSTAR":0.001212948,"MEAN_MOTION_DOT":4.49e-6,"MEAN_MOTION_DDOT":0},{"OBJECT_NAME":"ONEWEB-0301","OBJECT_ID":"2021-075R","EPOCH":"2026-01-06T07:30:39.701664","MEAN_MOTION":13.12445218,"ECCENTRICITY":0.00020152,"INCLINATION":87.8923,"RA_OF_ASC_NODE":22.7994,"ARG_OF_PERICENTER":83.9089,"MEAN_ANOMALY":276.2269,"EPHEMERIS_TYPE":0,"CLASSIFICATION_TYPE":"U","NORAD_CAT_ID":49090,"ELEMENT_SET_NO":999,"REV_AT_EPOCH":21333,"BSTAR":-0.00040813982,"MEAN_MOTION_DOT":-1.34e-6,"MEAN_MOTION_DDOT":0},{"OBJECT_NAME":"ONEWEB-0302","OBJECT_ID":"2021-075S","EPOCH":"2026-01-06T07:11:08.062368","MEAN_MOTION":13.12442242,"ECCENTRICITY":0.00014727,"INCLINATION":87.8926,"RA_OF_ASC_NODE":22.8105,"ARG_OF_PERICENTER":100.4755,"MEAN_ANOMALY":259.6539,"EPHEMERIS_TYPE":0,"CLASSIFICATION_TYPE":"U","NORAD_CAT_ID":49091,"ELEMENT_SET_NO":999,"REV_AT_EPOCH":21331,"BSTAR":-0.0013156223,"MEAN_MOTION_DOT":-4.61e-6,"MEAN_MOTION_DDOT":0},{"OBJECT_NAME":"ONEWEB-0304","OBJECT_ID":"2021-075T","EPOCH":"2026-01-06T02:53:35.770560","MEAN_MOTION":13.17648271,"ECCENTRICITY":0.00018468,"INCLINATION":87.9096,"RA_OF_ASC_NODE":38.0826,"ARG_OF_PERICENTER":99.1181,"MEAN_ANOMALY":261.016,"EPHEMERIS_TYPE":0,"CLASSIFICATION_TYPE":"U","NORAD_CAT_ID":49092,"ELEMENT_SET_NO":999,"REV_AT_EPOCH":21223,"BSTAR":7.0575e-5,"MEAN_MOTION_DOT":4.0e-7,"MEAN_MOTION_DDOT":0},{"OBJECT_NAME":"ONEWEB-0305","OBJECT_ID":"2021-075U","EPOCH":"2026-01-06T08:11:56.707584","MEAN_MOTION":13.17648771,"ECCENTRICITY":0.00020215,"INCLINATION":87.9098,"RA_OF_ASC_NODE":38.0164,"ARG_OF_PERICENTER":106.0577,"MEAN_ANOMALY":254.0777,"EPHEMERIS_TYPE":0,"CLASSIFICATION_TYPE":"U","NORAD_CAT_ID":49093,"ELEMENT_SET_NO":999,"REV_AT_EPOCH":21229,"BSTAR":-5.8072413e-5,"MEAN_MOTION_DOT":-1.0e-7,"MEAN_MOTION_DDOT":0},{"OBJECT_NAME":"ONEWEB-0308","OBJECT_ID":"2021-075V","EPOCH":"2026-01-06T07:01:21.596448","MEAN_MOTION":13.12442628,"ECCENTRICITY":0.00017279,"INCLINATION":87.8923,"RA_OF_ASC_NODE":22.8047,"ARG_OF_PERICENTER":90.9963,"MEAN_ANOMALY":269.1363,"EPHEMERIS_TYPE":0,"CLASSIFICATION_TYPE":"U","NORAD_CAT_ID":49094,"ELEMENT_SET_NO":999,"REV_AT_EPOCH":21332,"BSTAR":-0.0011241132,"MEAN_MOTION_DOT":-3.92e-6,"MEAN_MOTION_DDOT":0},{"OBJECT_NAME":"ONEWEB-0309","OBJECT_ID":"2021-075W","EPOCH":"2026-01-06T02:48:45.247968","MEAN_MOTION":13.17649824,"ECCENTRICITY":0.00013904,"INCLINATION":87.9098,"RA_OF_ASC_NODE":38.0766,"ARG_OF_PERICENTER":103.9326,"MEAN_ANOMALY":256.1961,"EPHEMERIS_TYPE":0,"CLASSIFICATION_TYPE":"U","NORAD_CAT_ID":49095,"ELEMENT_SET_NO":999,"REV_AT_EPOCH":21223,"BSTAR":0.00014068264,"MEAN_MOTION_DOT":6.8e-7,"MEAN_MOTION_DDOT":0},{"OBJECT_NAME":"ONEWEB-0310","OBJECT_ID":"2021-075X","EPOCH":"2026-01-06T07:23:20.231520","MEAN_MOTION":13.12445158,"ECCENTRICITY":0.00017105,"INCLINATION":87.8918,"RA_OF_ASC_NODE":22.8368,"ARG_OF_PERICENTER":91.0975,"MEAN_ANOMALY":269.035,"EPHEMERIS_TYPE":0,"CLASSIFICATION_TYPE":"U","NORAD_CAT_ID":49096,"ELEMENT_SET_NO":999,"REV_AT_EPOCH":21395,"BSTAR":-0.00080686201,"MEAN_MOTION_DOT":-2.78e-6,"MEAN_MOTION_DDOT":0},{"OBJECT_NAME":"ONEWEB-0311","OBJECT_ID":"2021-075Y","EPOCH":"2026-01-06T02:58:27.126912","MEAN_MOTION":13.1764736,"ECCENTRICITY":0.00020588,"INCLINATION":87.9095,"RA_OF_ASC_NODE":38.0705,"ARG_OF_PERICENTER":101.7954,"MEAN_ANOMALY":258.3408,"EPHEMERIS_TYPE":0,"CLASSIFICATION_TYPE":"U","NORAD_CAT_ID":49097,"ELEMENT_SET_NO":999,"REV_AT_EPOCH":21228,"BSTAR":-2.0377109e-5,"MEAN_MOTION_DOT":5.0e-8,"MEAN_MOTION_DDOT":0},{"OBJECT_NAME":"ONEWEB-0312","OBJECT_ID":"2021-075Z","EPOCH":"2026-01-06T01:30:59.826816","MEAN_MOTION":13.17649761,"ECCENTRICITY":0.00017546,"INCLINATION":87.9084,"RA_OF_ASC_NODE":38.1062,"ARG_OF_PERICENTER":107.2449,"MEAN_ANOMALY":252.8875,"EPHEMERIS_TYPE":0,"CLASSIFICATION_TYPE":"U","NORAD_CAT_ID":49098,"ELEMENT_SET_NO":999,"REV_AT_EPOCH":21225,"BSTAR":0.00011606483,"MEAN_MOTION_DOT":5.8e-7,"MEAN_MOTION_DDOT":0},{"OBJECT_NAME":"ONEWEB-0313","OBJECT_ID":"2021-075AA","EPOCH":"2026-01-06T07:06:08.238816","MEAN_MOTION":13.17649314,"ECCENTRICITY":0.00018624,"INCLINATION":87.9084,"RA_OF_ASC_NODE":38.067,"ARG_OF_PERICENTER":98.1042,"MEAN_ANOMALY":262.0301,"EPHEMERIS_TYPE":0,"CLASSIFICATION_TYPE":"U","NORAD_CAT_ID":49099,"ELEMENT_SET_NO":999,"REV_AT_EPOCH":21227,"BSTAR":1.4293526e-5,"MEAN_MOTION_DOT":1.8e-7,"MEAN_MOTION_DDOT":0},{"OBJECT_NAME":"ONEWEB-0314","OBJECT_ID":"2021-075AB","EPOCH":"2026-01-06T08:07:04.835424","MEAN_MOTION":13.17649591,"ECCENTRICITY":0.00018345,"INCLINATION":87.9099,"RA_OF_ASC_NODE":38.0141,"ARG_OF_PERICENTER":108.5969,"MEAN_ANOMALY":251.5362,"EPHEMERIS_TYPE":0,"CLASSIFICATION_TYPE":"U","NORAD_CAT_ID":49100,"ELEMENT_SET_NO":999,"REV_AT_EPOCH":21225,"BSTAR":-7.9342292e-5,"MEAN_MOTION_DOT":-1.8e-7,"MEAN_MOTION_DDOT":0},{"OBJECT_NAME":"ONEWEB-0315","OBJECT_ID":"2021-075AC","EPOCH":"2026-01-06T06:44:18.580704","MEAN_MOTION":13.12441361,"ECCENTRICITY":0.0002126,"INCLINATION":87.8925,"RA_OF_ASC_NODE":22.7924,"ARG_OF_PERICENTER":95.3148,"MEAN_ANOMALY":264.8223,"EPHEMERIS_TYPE":0,"CLASSIFICATION_TYPE":"U","NORAD_CAT_ID":49101,"ELEMENT_SET_NO":999,"REV_AT_EPOCH":21393,"BSTAR":-0.00017262135,"MEAN_MOTION_DOT":-4.9e-7,"MEAN_MOTION_DDOT":0}]
