ONEWEB-0296             
1 49085U 21075L   26006.30617860 -.00000333  00000+0 -96144-3 0  9993
2 49085  87.8923  22.8068 0001723 103.4707 256.6613 13.12445397213347
ONEWEB-0297             
1 49086U 21075M   26006.33668423  .00000440  00000+0  11878-2 0  9995
2 49086  87.8916  22.8308 0001780  94.6912 265.4420 13.12443468213957
ONEWEB-0298             
1 49087U 21075N   26006.14432508  .00000040  00000+0  70007-4 0  9995
2 49087  87.9087  38.0832 0001921  93.8646 266.2705 13.17649437212280
ONEWEB-0299             
1 49088U 21075P   26006.14587685 -.00000001  00000+0 -36325-4 0  9997
2 49088  87.9096  38.0473 0001854  99.4391 260.6950 13.17650183212264
ONEWEB-0300             
1 49089U 21075Q   26006.10035464  .00000449  00000+0  12129-2 0  9995
2 49089  87.8926  22.8403 0001975  86.1633 273.9721 13.12444127213949
ONEWEB-0301             
1 49090U 21075R   26006.31295951 -.00000134  00000+0 -40814-3 0  9995
2 49090  87.8923  22.7994 0002015  83.9089 276.2269 13.12445218213336
ONEWEB-0302             
1 49091U 21075S   26006.29939887 -.00000461  00000+0 -13156-2 0  9997
2 49091  87.8926  22.8105 0001472 100.4755 259.6539 13.12442242213313
ONEWEB-0304             
1 49092U 21075T   26006.12055290  .00000040  00000+0  70575-4 0  9998
2 49092  87.9096  38.0826 0001846  99.1181 261.0160 13.17648271212236
ONEWEB-0305             
1 49093U 21075U   26006.34162856 -.00000010  00000+0 -58072-4 0  9997
2 49093  87.9098  38.0164 0002021 106.0577 254.0777 13.17648771212294
ONEWEB-0308             
1 49094U 21075V   26006.29261107 -.00000392  00000+0 -11241-2 0  9999
2 49094  87.8923  22.8047 0001727  90.9963 269.1363 13.12442628213325
ONEWEB-0309             
1 49095U 21075W   26006.11719037  .00000068  00000+0  14068-3 0  9990
2 49095  87.9098  38.0766 0001390 103.9326 256.1961 13.17649824212232
ONEWEB-0310             
1 49096U 21075X   26006.30787305 -.00000278  00000+0 -80686-3 0  9999
2 49096  87.8918  22.8368 0001710  91.0975 269.0350 13.12445158213959
ONEWEB-0311             
1 49097U 21075Y   26006.12392508  .00000005  00000+0 -20377-4 0  9996
2 49097  87.9095  38.0705 0002058 101.7954 258.3408 13.17647360212287
ONEWEB-0312             
1 49098U 21075Z   26006.06319244  .00000058  00000+0  11606-3 0  9997
2 49098  87.9084  38.1062 0001754 107.2449 252.8875 13.17649761212256
ONEWEB-0313             
1 49099U 21075AA  26006.29592869  .00000018  00000+0  14294-4 0  9992
2 49099  87.9084  38.0670 0001862  98.1042 262.0301 13.17649314212271
ONEWEB-0314             
1 49100U 21075AB  26006.33825041 -.00000018  00000+0 -79342-4 0  9998
2 49100  87.9099  38.0141 0001834 108.5969 251.5362 13.17649591212251
ONEWEB-0315             
1 49101U 21075AC  26006.28077061 -.00000049  00000+0 -17262-3 0  9990
2 49101  87.8925  22.7924 0002126  95.3148 264.8223 13.12441361213934
